[{"OBJECT_NAME":"YAOGAN-30 08C","OBJECT_ID":"2020-076C","EPOCH":"2026-03-09T22:12:19.215360","MEAN_MOTION":15.02142271,"ECCENTRICITY":0.00075536,"INCLINATION":34.9972,"RA_OF_ASC_NODE":335.6323,"ARG_OF_PERICENTER":280.0853,"MEAN_ANOMALY":79.9003,"EPHEMERIS_TYPE":0,"CLASSIFICATION_TYPE":"U","NORAD_CAT_ID":46809,"ELEMENT_SET_NO":999,"REV_AT_EPOCH":29320,"BSTAR":0.00034959402,"MEAN_MOTION_DOT":4.668e-5,"MEAN_MOTION_DDOT":0},{"OBJECT_NAME":"STARLINK-35185","OBJECT_ID":"2025-207S","EPOCH":"2026-03-09T18:24:27.642240","MEAN_MOTION":15.05656967,"ECCENTRICITY":9.238e-5,"INCLINATION":97.5981,"RA_OF_ASC_NODE":138.7482,"ARG_OF_PERICENTER":71.6288,"MEAN_ANOMALY":288.5039,"EPHEMERIS_TYPE":0,"CLASSIFICATION_TYPE":"U","NORAD_CAT_ID":65608,"ELEMENT_SET_NO":999,"REV_AT_EPOCH":2827,"BSTAR":-0.00038613947,"MEAN_MOTION_DOT":-5.629e-5,"MEAN_MOTION_DDOT":0}]
